     2              NAVIGATION DATA                         RINEX VERSION / TYPE
CCRINEXN V1.6.0 UX  CDDIS               11-SEP-17 17:31     PGM / RUN BY / DATE 
IGS BROADCAST EPHEMERIS FILE                                COMMENT             
    0.1490D-07  0.2235D-07 -0.1192D-06 -0.1192D-06          ION ALPHA           
    0.1085D+06  0.6554D+05 -0.1966D+06 -0.1311D+06          ION BETA            
   -0.931322574615D-09-0.177635683940D-14   233472     1966 DELTA-UTC: A0,A1,T,W
    18                                                      LEAP SECONDS        
                                                            END OF HEADER       
29 17  9 10 14  0  0.0 0.564652960748D-03-0.432009983342D-11 0.000000000000D+00
    0.530000000000D+02-0.182187500000D+02 0.401052435706D-08-0.189613674116D+01
   -0.845640897751D-06 0.533062731847D-03 0.116676092148D-04 0.515357765198D+04
    0.504000000000D+05 0.242143869400D-07 0.894274736944D+00 0.521540641785D-07
    0.981958335192D+00 0.166812500000D+03 0.888253117433D+00-0.778818165514D-08
    0.315370285442D-09 0.100000000000D+01 0.196600000000D+04 0.000000000000D+00
    0.200000000000D+01 0.000000000000D+00-0.102445483208D-07 0.530000000000D+02
    0.432000000000D+05 0.000000000000D+00 0.000000000000D+00 0.000000000000D+00
30 17  9 10 14  0  0.0 0.141277443618D-03-0.204636307899D-11 0.000000000000D+00
    0.640000000000D+02 0.605625000000D+02 0.507735453681D-08 0.252086552897D+00
    0.320747494698D-05 0.306750705931D-02 0.356510281563D-05 0.515362922478D+04
    0.504000000000D+05 0.137835741043D-06-0.120032373398D+01-0.558793544769D-08
    0.946594193882D+00 0.302937500000D+03-0.306305141266D+01-0.865678906337D-08
    0.282868922730D-09 0.100000000000D+01 0.196600000000D+04 0.000000000000D+00
    0.200000000000D+01 0.000000000000D+00 0.372529029846D-08 0.640000000000D+02
    0.432300000000D+05 0.000000000000D+00 0.000000000000D+00 0.000000000000D+00
31 17  9 10 14  0  0.0 0.176187139005D-03-0.250111042988D-11 0.000000000000D+00
    0.130000000000D+02 0.565937500000D+02 0.463376444346D-08 0.714903107955D-01
    0.304915010929D-05 0.848811969627D-02 0.452250242233D-05 0.515377472305D+04
    0.504000000000D+05 0.707805156708D-07-0.122631066257D+01-0.614672899246D-07
    0.965605683295D+00 0.290468750000D+03-0.244639881479D+00-0.846535261592D-08
    0.245724521127D-09 0.100000000000D+01 0.196600000000D+04 0.000000000000D+00
    0.200000000000D+01 0.000000000000D+00-0.135041773319D-07 0.130000000000D+02
    0.432000000000D+05 0.400000000000D+01 0.000000000000D+00 0.000000000000D+00
32 17  9 10 14  0  0.0-0.497750937939D-03-0.591171556152D-11 0.000000000000D+00
    0.970000000000D+02 0.381250000000D+02 0.423553356983D-08-0.257040034329D+01
    0.212527811527D-05 0.142945174593D-02 0.115949660540D-04 0.515376386452D+04
    0.504000000000D+05-0.614672899246D-07-0.231282743066D+01 0.651925802231D-07
    0.957808555222D+00 0.153750000000D+03-0.255457758811D+01-0.783889795014D-08
    0.421446126351D-10 0.100000000000D+01 0.196600000000D+04 0.000000000000D+00
    0.200000000000D+01 0.000000000000D+00 0.931322574616D-09 0.970000000000D+02
    0.432000000000D+05 0.400000000000D+01 0.000000000000D+00 0.000000000000D+00
 1 17  9 10 15 59 44.0 0.551985576749D-04-0.454747350886D-12 0.000000000000D+00
    0.200000000000D+02 0.193125000000D+02 0.477912764128D-08 0.195567448752D+01
    0.101514160633D-05 0.703777105082D-02 0.621378421783D-05 0.515367840195D+04
    0.575840000000D+05-0.268220901489D-06 0.188884323141D+01 0.298023223877D-07
    0.968216044096D+00 0.264468750000D+03 0.620247685406D+00-0.824462913618D-08
    0.336442585613D-09 0.100000000000D+01 0.196600000000D+04 0.000000000000D+00
    0.200000000000D+01 0.000000000000D+00 0.558793544769D-08 0.200000000000D+02
    0.556800000000D+05 0.400000000000D+01 0.000000000000D+00 0.000000000000D+00
 3 17  9 10 15 59 44.0-0.693430192769D-04 0.420641299570D-11 0.000000000000D+00
    0.000000000000D+00-0.500625000000D+02 0.481020023813D-08 0.104248106576D+01
   -0.255741178989D-05 0.956297037192D-03 0.756606459618D-05 0.515366113663D+04
    0.575840000000D+05 0.558793544769D-07 0.293146585644D+01-0.167638063431D-07
    0.960537871744D+00 0.231281250000D+03 0.405824224711D+00-0.826248669483D-08
   -0.467162308837D-09 0.100000000000D+01 0.196600000000D+04 0.000000000000D+00
    0.200000000000D+01 0.000000000000D+00 0.232830643654D-08 0.000000000000D+00
    0.509400000000D+05 0.000000000000D+00 0.000000000000D+00 0.000000000000D+00
24 17  9 10 15 59 44.0-0.395593233407D-04-0.227373675443D-12 0.000000000000D+00
    0.460000000000D+02 0.847500000000D+02 0.509556939378D-08 0.224503074517D+01
    0.434182584286D-05 0.587586616166D-02 0.448152422905D-05 0.515367635346D+04
    0.575840000000D+05-0.782310962677D-07-0.129308400321D+01-0.484287738800D-07
    0.943919378374D+00 0.282906250000D+03 0.468874471029D+00-0.861714465295D-08
    0.270368404786D-09 0.100000000000D+01 0.196600000000D+04 0.000000000000D+00
    0.200000000000D+01 0.000000000000D+00 0.279396772385D-08 0.460000000000D+02
    0.512100000000D+05 0.400000000000D+01 0.000000000000D+00 0.000000000000D+00
25 17  9 10 15 59 44.0-0.453900545835D-03-0.636646291241D-11 0.000000000000D+00
    0.600000000000D+01-0.705625000000D+02 0.435696719946D-08 0.285753928672D+00
   -0.378489494324D-05 0.655703083612D-02 0.617839396000D-05 0.515375680351D+04
    0.575840000000D+05-0.279396772385D-07-0.207698255123D+00 0.163912773132D-06
    0.976665905735D+00 0.273250000000D+03 0.826368857786D+00-0.826070123422D-08
   -0.289654922433D-09 0.100000000000D+01 0.196600000000D+04 0.000000000000D+00
    0.200000000000D+01 0.000000000000D+00 0.558793544769D-08 0.600000000000D+01
    0.555600000000D+05 0.400000000000D+01 0.000000000000D+00 0.000000000000D+00
26 17  9 10 15 59 44.0-0.429753679782D-03 0.103455022327D-10 0.000000000000D+00
    0.800000000000D+01-0.665937500000D+02 0.467805200250D-08-0.295014663859D+00
   -0.341981649399D-05 0.188027624972D-02 0.546500086784D-05 0.515376439476D+04
    0.575840000000D+05 0.102445483208D-06-0.224984438934D+00-0.372529029846D-08
    0.958355347187D+00 0.270812500000D+03-0.148782133373D-02-0.839284959587D-08
   -0.250367571672D-09 0.100000000000D+01 0.196600000000D+04 0.000000000000D+00
    0.200000000000D+01 0.000000000000D+00 0.745058059692D-08 0.800000000000D+01
    0.507600000000D+05 0.400000000000D+01 0.000000000000D+00 0.000000000000D+00
31 17  9 10 15 59 44.0 0.176172703505D-03-0.250111042988D-11 0.000000000000D+00
    0.270000000000D+02 0.661562500000D+02 0.452590280773D-08 0.111917188941D+01
    0.354647636414D-05 0.848850782495D-02 0.457465648651D-05 0.515377629471D+04
    0.575840000000D+05 0.875443220139D-07-0.122637062026D+01 0.104308128357D-06
    0.965607858655D+00 0.289718750000D+03-0.244535478867D+00-0.832177520677D-08
    0.185722021782D-09 0.100000000000D+01 0.196600000000D+04 0.000000000000D+00
    0.200000000000D+01 0.000000000000D+00-0.135041773319D-07 0.270000000000D+02
    0.567000000000D+05 0.400000000000D+01 0.000000000000D+00 0.000000000000D+00
32 17  9 10 15 59 44.0-0.497791450471D-03-0.591171556152D-11 0.000000000000D+00
    0.200000000000D+01 0.380937500000D+02 0.426660617947D-08-0.152147829353D+01
    0.203214585781D-05 0.142839248292D-02 0.125840306282D-04 0.515376749039D+04
    0.575840000000D+05 0.335276126862D-07-0.231288279772D+01-0.139698386192D-06
    0.957808145605D+00 0.139593750000D+03-0.255571142716D+01-0.787032750083D-08
   -0.142505937606D-09 0.100000000000D+01 0.196600000000D+04 0.000000000000D+00
    0.200000000000D+01 0.000000000000D+00 0.931322574616D-09 0.200000000000D+01
    0.567600000000D+05 0.000000000000D+00 0.000000000000D+00 0.000000000000D+00
 1 17  9 10 16  0  0.0 0.551980920136D-04-0.454747350886D-12 0.000000000000D+00
    0.950000000000D+02 0.193125000000D+02 0.477912776020D-08 0.195800844165D+01
    0.101514160633D-05 0.703777617309D-02 0.621378421783D-05 0.515367841148D+04
    0.576000000000D+05-0.268220901489D-06 0.188884309097D+01 0.298023223877D-07
    0.968216055799D+00 0.264468750000D+03 0.620247395748D+00-0.824462897953D-08
    0.336442596005D-09 0.100000000000D+01 0.196600000000D+04 0.000000000000D+00
    0.200000000000D+01 0.000000000000D+00 0.558793544769D-08 0.950000000000D+02
    0.000000000000D+00 0.000000000000D+00 0.000000000000D+00 0.000000000000D+00
 2 17  9 10 16  0  0.0 0.333519652486D-03-0.898126018001D-11 0.000000000000D+00
    0.510000000000D+02 0.267187500000D+02 0.513699971450D-08 0.234946212071D+01
    0.112503767013D-05 0.170377682662D-01 0.577606260777D-05 0.515357510376D+04
    0.576000000000D+05 0.126659870148D-06 0.183319056976D+01-0.249594449997D-06
    0.947174335990D+00 0.257593750000D+03-0.195680659155D+01-0.819712742128D-08
    0.334656802270D-09 0.100000000000D+01 0.196600000000D+04 0.000000000000D+00
    0.200000000000D+01 0.000000000000D+00-0.204890966415D-07 0.510000000000D+02
    0.528900000000D+05 0.000000000000D+00 0.000000000000D+00 0.000000000000D+00
 3 17  9 10 16  0  0.0-0.693439505994D-04 0.420641299570D-11 0.000000000000D+00
    0.144000000000D+03-0.500625000000D+02 0.481020023813D-08 0.104482225695D+01
   -0.255741178989D-05 0.956306234002D-03 0.756606459618D-05 0.515366112709D+04
    0.576000000000D+05 0.558793544769D-07 0.293146572039D+01-0.167638063431D-07
    0.960537868818D+00 0.231281250000D+03 0.405816880862D+00-0.826248669483D-08
   -0.467162308837D-09 0.100000000000D+01 0.196600000000D+04 0.000000000000D+00
    0.280000000000D+01 0.000000000000D+00 0.232830643654D-08 0.144000000000D+03
    0.504300000000D+05 0.000000000000D+00 0.000000000000D+00 0.000000000000D+00
